[{"OBJECT_NAME":"STARLINK-34909","OBJECT_ID":"2025-191Y","EPOCH":"2026-03-09T15:21:20.513664","MEAN_MOTION":15.05650911,"ECCENTRICITY":0.0002553,"INCLINATION":97.6021,"RA_OF_ASC_NODE":301.5048,"ARG_OF_PERICENTER":79.2579,"MEAN_ANOMALY":280.8935,"EPHEMERIS_TYPE":0,"CLASSIFICATION_TYPE":"U","NORAD_CAT_ID":65401,"ELEMENT_SET_NO":999,"REV_AT_EPOCH":3027,"BSTAR":0.00036068,"MEAN_MOTION_DOT":5.148e-5,"MEAN_MOTION_DDOT":0},{"OBJECT_NAME":"IRIDIUM 33 DEB","OBJECT_ID":"1997-051PF","EPOCH":"2026-03-08T20:08:48.628608","MEAN_MOTION":15.0410284,"ECCENTRICITY":0.00301759,"INCLINATION":86.2075,"RA_OF_ASC_NODE":10.7469,"ARG_OF_PERICENTER":217.121,"MEAN_ANOMALY":142.7938,"EPHEMERIS_TYPE":0,"CLASSIFICATION_TYPE":"U","NORAD_CAT_ID":35080,"ELEMENT_SET_NO":999,"REV_AT_EPOCH":70973,"BSTAR":0.01054144,"MEAN_MOTION_DOT":0.00150308,"MEAN_MOTION_DDOT":0}]
